PLEIADES 1A             
1 38012U 11076F   26199.00882150 -.00000024  00000+0  45944-5 0  9997
2 38012  98.1968 273.6958 0001659  77.9400  47.8640 14.58547057776482
PLEIADES 1B             
1 39019U 12068A   26198.95026329  .00000006  00000+0  11150-4 0  9998
2 39019  98.1939 273.5763 0001526  78.1041 282.0329 14.58534645725332
